{"type": "FeatureCollection", "features": [ {"type": "Feature", "properties": {"norad_id": 66325, "name": "STARLINK-35504", "group": "last-30-days", "lat": 41.62346541816877, "lon": 144.5403416767991, "alt_km": 438.5397497018903, "timestamp": "2025-12-03T19:33:05.754582+00:00", "meta": {"OBJECT_NAME": "STARLINK-35504", "OBJECT_ID": "2025-253G", "EPOCH": "2025-12-03T12:00:02.998944", "MEAN_MOTION": 15.41791328, "ECCENTRICITY": 0.0001655, "INCLINATION": 43.0004, "RA_OF_ASC_NODE": 38.822, "ARG_OF_PERICENTER": 297.9733, "MEAN_ANOMALY": 217.2756, "EPHEMERIS_TYPE": 0, "CLASSIFICATION_TYPE": "U", "NORAD_CAT_ID": 66325, "ELEMENT_SET_NO": 999, "REV_AT_EPOCH": 544, "BSTAR": -0.038739, "MEAN_MOTION_DOT": -0.01514849, "MEAN_MOTION_DDOT": 0}, "tle": {"line1": "1 66325U 25253G   25337.50003471 -.01514849  00000+0 -38739-1 0  9993", "line2": "2 66325  43.0004  38.8220 0001655 297.9733 217.2756 15.41791328  5449"}}, "geometry": {"type": "Point", "coordinates": [144.5403416767991, 41.62346541816877]}}, {"type": "Feature", "properties": {"norad_id": 66326, "name": "STARLINK-35479", "group": "last-30-days", "lat": 20.578857296327246, "lon": -166.86674715291187, "alt_km": 412.1611411813901, "timestamp": "2025-12-03T19:33:05.754597+00:00", "meta": {"OBJECT_NAME": "STARLINK-35479", "OBJECT_ID": "2025-253H", "EPOCH": "2025-12-03T11:10:58.631232", "MEAN_MOTION": 15.50603892, "ECCENTRICITY": 0.00016, "INCLINATION": 43.0018, "RA_OF_ASC_NODE": 38.9323, "ARG_OF_PERICENTER": 272.6814, "MEAN_ANOMALY": 87.3864, "EPHEMERIS_TYPE": 0, "CLASSIFICATION_TYPE": "U", "NORAD_CAT_ID": 66326, "ELEMENT_SET_NO": 999, "REV_AT_EPOCH": 549, "BSTAR": 0.00154, "MEAN_MOTION_DOT": 0.00091145, "MEAN_MOTION_DDOT": 0}, "tle": {"line1": "1 66326U 25253H   25337.46595638  .00091145  00000+0  15400-2 0  9997", "line2": "2 66326  43.0018  38.9323 0001600 272.6814  87.3864 15.50603892  5499"}}, "geometry": {"type": "Point", "coordinates": [-166.86674715291187, 20.578857296327246]}}, {"type": "Feature", "properties": {"norad_id": 66327, "name": "STARLINK-35507", "group": "last-30-days", "lat": 27.504333045590958, "lon": -177.04526953153658, "alt_km": 411.5382016979429, "timestamp": "2025-12-03T19:33:05.754608+00:00", "meta": {"OBJECT_NAME": "STARLINK-35507", "OBJECT_ID": "2025-253J", "EPOCH": "2025-12-03T08:00:01.999008", "MEAN_MOTION": 15.50641745, "ECCENTRICITY": 0.0001472, "INCLINATION": 43.0006, "RA_OF_ASC_NODE": 39.7386, "ARG_OF_PERICENTER": 263.2374, "MEAN_ANOMALY": 64.2491, "EPHEMERIS_TYPE": 0, "CLASSIFICATION_TYPE": "U", "NORAD_CAT_ID": 66327, "ELEMENT_SET_NO": 999, "REV_AT_EPOCH": 551, "BSTAR": -0.002531, "MEAN_MOTION_DOT": -0.00146406, "MEAN_MOTION_DDOT": 0}, "tle": {"line1": "1 66327U 25253J   25337.33335647 -.00146406  00000+0 -25310-2 0  9990", "line2": "2 66327  43.0006  39.7386 0001472 263.2374  64.2491 15.50641745  5511"}}, "geometry": {"type": "Point", "coordinates": [-177.04526953153658, 27.504333045590958]}}, {"type": "Feature", "properties": {"norad_id": 66328, "name": "STARLINK-35460", "group": "last-30-days", "lat": 15.478885528016074, "lon": -160.42049805457702, "alt_km": 411.7436530056975, "timestamp": "2025-12-03T19:33:05.754618+00:00", "meta": {"OBJECT_NAME": "STARLINK-35460", "OBJECT_ID": "2025-253K", "EPOCH": "2025-12-03T04:58:05.880864", "MEAN_MOTION": 15.5097752, "ECCENTRICITY": 0.0008271, "INCLINATION": 42.9967, "RA_OF_ASC_NODE": 40.4277, "ARG_OF_PERICENTER": 250.2272, "MEAN_ANOMALY": 109.7696, "EPHEMERIS_TYPE": 0, "CLASSIFICATION_TYPE": "U", "NORAD_CAT_ID": 66328, "ELEMENT_SET_NO": 999, "REV_AT_EPOCH": 545, "BSTAR": 0.0018701, "MEAN_MOTION_DOT": 0.00112679, "MEAN_MOTION_DDOT": 0}, "tle": {"line1": "1 66328U 25253K   25337.20701251  .00112679  00000+0  18701-2 0  9994", "line2": "2 66328  42.9967  40.4277 0008271 250.2272 109.7696 15.50977520  5459"}}, "geometry": {"type": "Point", "coordinates": [-160.42049805457702, 15.478885528016074]}}, {"type": "Feature", "properties": {"norad_id": 66329, "name": "STARLINK-35505", "group": "last-30-days", "lat": 28.540732359327396, "lon": -178.7812543349038, "alt_km": 410.9930210171524, "timestamp": "2025-12-03T19:33:05.754629+00:00", "meta": {"OBJECT_NAME": "STARLINK-35505", "OBJECT_ID": "2025-253L", "EPOCH": "2025-12-03T11:14:26.007648", "MEAN_MOTION": 15.50594254, "ECCENTRICITY": 0.0001287, "INCLINATION": 43.0004, "RA_OF_ASC_NODE": 38.9522, "ARG_OF_PERICENTER": 266.7916, "MEAN_ANOMALY": 93.2797, "EPHEMERIS_TYPE": 0, "CLASSIFICATION_TYPE": "U", "NORAD_CAT_ID": 66329, "ELEMENT_SET_NO": 999, "REV_AT_EPOCH": 549, "BSTAR": 0.00052115, "MEAN_MOTION_DOT": 0.00030366, "MEAN_MOTION_DDOT": 0}, "tle": {"line1": "1 66329U 25253L   25337.46835657  .00030366  00000+0  52115-3 0  9991", "line2": "2 66329  43.0004  38.9522 0001287 266.7916  93.2797 15.50594254  5498"}}, "geometry": {"type": "Point", "coordinates": [-178.7812543349038, 28.540732359327396]}}, {"type": "Feature", "properties": {"norad_id": 66330, "name": "STARLINK-35512", "group": "last-30-days", "lat": 26.383931786463894, "lon": 69.32071667303725, "alt_km": 440.57543026662006, "timestamp": "2025-12-03T19:33:05.754641+00:00", "meta": {"OBJECT_NAME": "STARLINK-35512", "OBJECT_ID": "2025-253M", "EPOCH": "2025-12-03T12:00:02.998944", "MEAN_MOTION": 15.40638383, "ECCENTRICITY": 0.0001418, "INCLINATION": 43.0007, "RA_OF_ASC_NODE": 38.9718, "ARG_OF_PERICENTER": 265.36, "MEAN_ANOMALY": 188.3233, "EPHEMERIS_TYPE": 0, "CLASSIFICATION_TYPE": "U", "NORAD_CAT_ID": 66330, "ELEMENT_SET_NO": 999, "REV_AT_EPOCH": 544, "BSTAR": 0.0015556, "MEAN_MOTION_DOT": 0.00065101, "MEAN_MOTION_DDOT": 0}, "tle": {"line1": "1 66330U 25253M   25337.50003471  .00065101  00000+0  15556-2 0  9991", "line2": "2 66330  43.0007  38.9718 0001418 265.3600 188.3233 15.40638383  5448"}}, "geometry": {"type": "Point", "coordinates": [69.32071667303725, 26.383931786463894]}}, {"type": "Feature", "properties": {"norad_id": 66331, "name": "STARLINK-35257", "group": "last-30-days", "lat": 13.050810071886533, "lon": -157.54319080211906, "alt_km": 412.7437745662537, "timestamp": "2025-12-03T19:33:05.754653+00:00", "meta": {"OBJECT_NAME": "STARLINK-35257", "OBJECT_ID": "2025-253N", "EPOCH": "2025-12-03T04:56:59.008128", "MEAN_MOTION": 15.50615479, "ECCENTRICITY": 7.54e-05, "INCLINATION": 42.9973, "RA_OF_ASC_NODE": 40.4224, "ARG_OF_PERICENTER": 282.3913, "MEAN_ANOMALY": 77.6863, "EPHEMERIS_TYPE": 0, "CLASSIFICATION_TYPE": "U", "NORAD_CAT_ID": 66331, "ELEMENT_SET_NO": 999, "REV_AT_EPOCH": 545, "BSTAR": 0.0019143, "MEAN_MOTION_DOT": 0.00113757, "MEAN_MOTION_DDOT": 0}, "tle": {"line1": "1 66331U 25253N   25337.20623852  .00113757  00000+0  19143-2 0  9997", "line2": "2 66331  42.9973  40.4224 0000754 282.3913  77.6863 15.50615479  5459"}}, "geometry": {"type": "Point", "coordinates": [-157.54319080211906, 13.050810071886533]}}, {"type": "Feature", "properties": {"norad_id": 66332, "name": "STARLINK-35322", "group": "last-30-days", "lat": 18.511724562783254, "lon": -164.1779691503205, "alt_km": 411.511653257754, "timestamp": "2025-12-03T19:33:05.754663+00:00", "meta": {"OBJECT_NAME": "STARLINK-35322", "OBJECT_ID": "2025-253P", "EPOCH": "2025-12-02T05:48:04.239936", "MEAN_MOTION": 15.50671276, "ECCENTRICITY": 9.86e-05, "INCLINATION": 43.0002, "RA_OF_ASC_NODE": 46.0856, "ARG_OF_PERICENTER": 282.8379, "MEAN_ANOMALY": 77.2371, "EPHEMERIS_TYPE": 0, "CLASSIFICATION_TYPE": "U", "NORAD_CAT_ID": 66332, "ELEMENT_SET_NO": 999, "REV_AT_EPOCH": 530, "BSTAR": 0.001523, "MEAN_MOTION_DOT": 0.00090339, "MEAN_MOTION_DDOT": 0}, "tle": {"line1": "1 66332U 25253P   25336.24171574  .00090339  00000+0  15230-2 0  9993", "line2": "2 66332  43.0002  46.0856 0000986 282.8379  77.2371 15.50671276  5307"}}, "geometry": {"type": "Point", "coordinates": [-164.1779691503205, 18.511724562783254]}}, {"type": "Feature", "properties": {"norad_id": 66333, "name": "STARLINK-35400", "group": "last-30-days", "lat": 14.315844065824077, "lon": -159.029025278656, "alt_km": 412.42337805612715, "timestamp": "2025-12-03T19:33:05.754674+00:00", "meta": {"OBJECT_NAME": "STARLINK-35400", "OBJECT_ID": "2025-253Q", "EPOCH": "2025-12-03T04:57:28.692576", "MEAN_MOTION": 15.5061405, "ECCENTRICITY": 7.59e-05, "INCLINATION": 42.9978, "RA_OF_ASC_NODE": 40.4243, "ARG_OF_PERICENTER": 264.7764, "MEAN_ANOMALY": 95.3009, "EPHEMERIS_TYPE": 0, "CLASSIFICATION_TYPE": "U", "NORAD_CAT_ID": 66333, "ELEMENT_SET_NO": 999, "REV_AT_EPOCH": 545, "BSTAR": 0.0019637, "MEAN_MOTION_DOT": 0.00116738, "MEAN_MOTION_DDOT": 0}, "tle": {"line1": "1 66333U 25253Q   25337.20658209  .00116738  00000+0  19637-2 0  9993", "line2": "2 66333  42.9978  40.4243 0000759 264.7764  95.3009 15.50614050  5453"}}, "geometry": {"type": "Point", "coordinates": [-159.029025278656, 14.315844065824077]}}, {"type": "Feature", "properties": {"norad_id": 66334, "name": "STARLINK-35407", "group": "last-30-days", "lat": 17.996144662974288, "lon": -163.52346570284826, "alt_km": 411.5217807019553, "timestamp": "2025-12-03T19:33:05.754685+00:00", "meta": {"OBJECT_NAME": "STARLINK-35407", "OBJECT_ID": "2025-253R", "EPOCH": "2025-12-02T05:47:54.704832", "MEAN_MOTION": 15.50606846, "ECCENTRICITY": 0.000182, "INCLINATION": 43.0002, "RA_OF_ASC_NODE": 46.0853, "ARG_OF_PERICENTER": 277.7851, "MEAN_ANOMALY": 82.2803, "EPHEMERIS_TYPE": 0, "CLASSIFICATION_TYPE": "U", "NORAD_CAT_ID": 66334, "ELEMENT_SET_NO": 999, "REV_AT_EPOCH": 530, "BSTAR": 0.0026112, "MEAN_MOTION_DOT": 0.00156096, "MEAN_MOTION_DDOT": 0}, "tle": {"line1": "1 66334U 25253R   25336.24160538  .00156096  00000+0  26112-2 0  9997", "line2": "2 66334  43.0002  46.0853 0001820 277.7851  82.2803 15.50606846  5309"}}, "geometry": {"type": "Point", "coordinates": [-163.52346570284826, 17.996144662974288]}}]}